start=new Date('2022-01-11T00:00:00.000Z').valueOf();
sats=[{"ARG_OF_PERICENTER":"94.1420","RA_OF_ASC_NODE":"145.7052","MEAN_MOTION":"15.06404189","CENTER_NAME":"EARTH","CLASSIFICATION_TYPE":"U","LAUNCH_DATE":"2020-03-18","APOAPSIS":"548.661","COUNTRY_CODE":"US","ELEMENT_SET_NO":"999","EPOCH":"2022-01-10T16:23:55.723776","SEMIMAJOR_AXIS":"6925.336","DECAY_DATE":null,"REV_AT_EPOCH":"10078","ECCENTRICITY":"0.00021090","EPHEMERIS_TYPE":"0","TIME_SYSTEM":"UTC","NORAD_CAT_ID":"45374","MEAN_ELEMENT_THEORY":"SGP4","PERIAPSIS":"545.740","INCLINATION":"53.0538","MEAN_MOTION_DOT":"0.00001049","OBJECT_ID":"2020-019Q","GP_ID":"193622388","SITE":"AFETR","TLE_LINE2":"2 45374  53.0538 145.7052 0002109  94.1420 265.9810 15.06404189100780","PERIOD":"95.592","MEAN_ANOMALY":"265.9810","RCS_SIZE":"LARGE","BSTAR":"0.00008929300000","TLE_LINE1":"1 45374U 20019Q   22010.68328384  .00001049  00000-0  89293-4 0  9991","OBJECT_NAME":"STARLINK-1300","REF_FRAME":"TEME","OBJECT_TYPE":"PAYLOAD","MEAN_MOTION_DDOT":"0.0000000000000","FILE":"3269118"},{"CLASSIFICATION_TYPE":"U","ARG_OF_PERICENTER":"96.2753","MEAN_MOTION":"15.06400634","CENTER_NAME":"EARTH","RA_OF_ASC_NODE":"145.9449","TIME_SYSTEM":"UTC","SEMIMAJOR_AXIS":"6925.347","DECAY_DATE":null,"ECCENTRICITY":"0.00018830","REV_AT_EPOCH":"10077","EPHEMERIS_TYPE":"0","MEAN_ELEMENT_THEORY":"SGP4","NORAD_CAT_ID":"45375","COUNTRY_CODE":"US","APOAPSIS":"548.516","ELEMENT_SET_NO":"999","LAUNCH_DATE":"2020-03-18","EPOCH":"2022-01-10T15:09:37.231488","GP_ID":"193623137","SITE":"AFETR","TLE_LINE2":"2 45375  53.0547 145.9449 0001883  96.2753 263.8451 15.06400634100771","PERIOD":"95.592","MEAN_ANOMALY":"263.8451","MEAN_MOTION_DOT":"0.00001473","INCLINATION":"53.0547","PERIAPSIS":"545.908","OBJECT_ID":"2020-019R","OBJECT_TYPE":"PAYLOAD","REF_FRAME":"TEME","FILE":"3269118","MEAN_MOTION_DDOT":"0.0000000000000","RCS_SIZE":"LARGE","OBJECT_NAME":"STARLINK-1302","TLE_LINE1":"1 45375U 20019R   22010.63168092  .00001473  00000-0  11778-3 0  9998","BSTAR":"0.00011778000000"},{"OBJECT_TYPE":"PAYLOAD","REF_FRAME":"TEME","FILE":"3269118","MEAN_MOTION_DDOT":"0.0000000000000","RCS_SIZE":"LARGE","OBJECT_NAME":"STARLINK-1304","TLE_LINE1":"1 45376U 20019S   22010.65011097  .00001794  00000-0  13931-3 0  9992","BSTAR":"0.00013931000000","GP_ID":"193623389","SITE":"AFETR","MEAN_ANOMALY":"266.5783","TLE_LINE2":"2 45376  53.0546 145.8597 0001790  93.5411 266.5783 15.06404904100774","PERIOD":"95.592","INCLINATION":"53.0546","MEAN_MOTION_DOT":"0.00001794","PERIAPSIS":"545.959","OBJECT_ID":"2020-019S","TIME_SYSTEM":"UTC","EPHEMERIS_TYPE":"0","DECAY_DATE":null,"SEMIMAJOR_AXIS":"6925.334","ECCENTRICITY":"0.00017900","REV_AT_EPOCH":"10077","NORAD_CAT_ID":"45376","MEAN_ELEMENT_THEORY":"SGP4","ELEMENT_SET_NO":"999","APOAPSIS":"548.438","COUNTRY_CODE":"US","LAUNCH_DATE":"2020-03-18","EPOCH":"2022-01-10T15:36:09.587808","CLASSIFICATION_TYPE":"U","ARG_OF_PERICENTER":"93.5411","CENTER_NAME":"EARTH","MEAN_MOTION":"15.06404904","RA_OF_ASC_NODE":"145.8597"},{"CENTER_NAME":"EARTH","MEAN_MOTION":"15.06406064","RA_OF_ASC_NODE":"145.7346","ARG_OF_PERICENTER":"99.2776","CLASSIFICATION_TYPE":"U","EPOCH":"2022-01-10T16:13:18.732864","ELEMENT_SET_NO":"999","APOAPSIS":"548.580","COUNTRY_CODE":"US","LAUNCH_DATE":"2020-03-18","NORAD_CAT_ID":"45377","MEAN_ELEMENT_THEORY":"SGP4","TIME_SYSTEM":"UTC","EPHEMERIS_TYPE":"0","REV_AT_EPOCH":"10078","DECAY_DATE":null,"SEMIMAJOR_AXIS":"6925.330","ECCENTRICITY":"0.00020000","OBJECT_ID":"2020-019T","MEAN_MOTION_DOT":"0.00001377","INCLINATION":"53.0535","PERIAPSIS":"545.810","MEAN_ANOMALY":"260.8439","TLE_LINE2":"2 45377  53.0535 145.7346 0002000  99.2776 260.8439 15.06406064100781","PERIOD":"95.592","GP_ID":"193623639","SITE":"AFETR","OBJECT_NAME":"STARLINK-1305","BSTAR":"0.00011133000000","TLE_LINE1":"1 45377U 20019T   22010.67591126  .00001377  00000-0  11133-3 0  9990","RCS_SIZE":"LARGE","FILE":"3269118","MEAN_MOTION_DDOT":"0.0000000000000","OBJECT_TYPE":"PAYLOAD","REF_FRAME":"TEME"},{"ELEMENT_SET_NO":"999","COUNTRY_CODE":"US","APOAPSIS":"548.548","LAUNCH_DATE":"2020-03-18","EPOCH":"2022-01-10T15:57:23.542848","TIME_SYSTEM":"UTC","EPHEMERIS_TYPE":"0","DECAY_DATE":null,"SEMIMAJOR_AXIS":"6925.333","ECCENTRICITY":"0.00019500","REV_AT_EPOCH":"10078","NORAD_CAT_ID":"45378","MEAN_ELEMENT_THEORY":"SGP4","ARG_OF_PERICENTER":"97.0525","CENTER_NAME":"EARTH","MEAN_MOTION":"15.06405196","RA_OF_ASC_NODE":"145.7967","CLASSIFICATION_TYPE":"U","RCS_SIZE":"LARGE","OBJECT_NAME":"STARLINK-1310","BSTAR":"0.00012384000000","TLE_LINE1":"1 45378U 20019U   22010.66485582  .00001564  00000-0  12384-3 0  9995","OBJECT_TYPE":"PAYLOAD","REF_FRAME":"TEME","FILE":"3269118","MEAN_MOTION_DDOT":"0.0000000000000","INCLINATION":"53.0549","MEAN_MOTION_DOT":"0.00001564","PERIAPSIS":"545.847","OBJECT_ID":"2020-019U","GP_ID":"193622888","SITE":"AFETR","MEAN_ANOMALY":"263.0686","TLE_LINE2":"2 45378  53.0549 145.7967 0001950  97.0525 263.0686 15.06405196100781","PERIOD":"95.592"},{"OBJECT_NAME":"STARLINK-1319","TLE_LINE1":"1 45379U 20019V   22010.66854402  .00000892  00000-0  78787-4 0  9990","BSTAR":"0.00007878700000","RCS_SIZE":"LARGE","FILE":"3269118","MEAN_MOTION_DDOT":"0.0000000000000","OBJECT_TYPE":"PAYLOAD","REF_FRAME":"TEME","OBJECT_ID":"2020-019V","INCLINATION":"53.0537","MEAN_MOTION_DOT":"0.00000892","PERIAPSIS":"545.809","MEAN_ANOMALY":"266.0864","TLE_LINE2":"2 45379  53.0537 145.7715 0002010  94.0355 266.0864 15.06404263100781","PERIOD":"95.592","SITE":"AFETR","GP_ID":"193622638","EPOCH":"2022-01-10T16:02:42.203328","ELEMENT_SET_NO":"999","COUNTRY_CODE":"US","APOAPSIS":"548.592","LAUNCH_DATE":"2020-03-18","MEAN_ELEMENT_THEORY":"SGP4","NORAD_CAT_ID":"45379","TIME_SYSTEM":"UTC","EPHEMERIS_TYPE":"0","DECAY_DATE":null,"REV_AT_EPOCH":"10078","SEMIMAJOR_AXIS":"6925.335","ECCENTRICITY":"0.00020100","CENTER_NAME":"EARTH","MEAN_MOTION":"15.06404263","RA_OF_ASC_NODE":"145.7715","ARG_OF_PERICENTER":"94.0355","CLASSIFICATION_TYPE":"U"},{"ELEMENT_SET_NO":"999","COUNTRY_CODE":"US","APOAPSIS":"547.797","LAUNCH_DATE":"2020-03-18","EPOCH":"2022-01-10T14:24:29.909952","TIME_SYSTEM":"UTC","EPHEMERIS_TYPE":"0","DECAY_DATE":null,"ECCENTRICITY":"0.00008610","SEMIMAJOR_AXIS":"6925.336","REV_AT_EPOCH":"10105","NORAD_CAT_ID":"45380","MEAN_ELEMENT_THEORY":"SGP4","ARG_OF_PERICENTER":"86.1379","CENTER_NAME":"EARTH","MEAN_MOTION":"15.06404192","RA_OF_ASC_NODE":"126.0778","CLASSIFICATION_TYPE":"U","RCS_SIZE":"LARGE","OBJECT_NAME":"STARLINK-1207","TLE_LINE1":"1 45380U 20019W   22010.60034618  .00000494  00000-0  52031-4 0  9997","BSTAR":"0.00005203100000","OBJECT_TYPE":"PAYLOAD","REF_FRAME":"TEME","FILE":"3269068","MEAN_MOTION_DDOT":"0.0000000000000","INCLINATION":"53.0532","MEAN_MOTION_DOT":"0.00000494","PERIAPSIS":"546.604","OBJECT_ID":"2020-019W","GP_ID":"193602329","SITE":"AFETR","MEAN_ANOMALY":"273.9708","PERIOD":"95.592","TLE_LINE2":"2 45380  53.0532 126.0778 0000861  86.1379 273.9708 15.06404192101055"},{"BSTAR":"0.00004277300000","TLE_LINE1":"1 45381U 20019X   22010.61141279  .00000356  00000-0  42773-4 0  9990","OBJECT_NAME":"STARLINK-1258","RCS_SIZE":"LARGE","MEAN_MOTION_DDOT":"0.0000000000000","FILE":"3269034","REF_FRAME":"TEME","OBJECT_TYPE":"PAYLOAD","OBJECT_ID":"2020-019X","PERIAPSIS":"545.928","INCLINATION":"53.0539","MEAN_MOTION_DOT":"0.00000356","MEAN_ANOMALY":"257.0999","PERIOD":"95.592","TLE_LINE2":"2 45381  53.0539 126.0202 0001850 103.0197 257.0999 15.06401461101041","SITE":"AFETR","GP_ID":"193601663","EPOCH":"2022-01-10T14:40:26.065056","LAUNCH_DATE":"2020-03-18","ELEMENT_SET_NO":"999","COUNTRY_CODE":"US","APOAPSIS":"548.490","MEAN_ELEMENT_THEORY":"SGP4","NORAD_CAT_ID":"45381","EPHEMERIS_TYPE":"0","DECAY_DATE":null,"ECCENTRICITY":"0.00018500","SEMIMAJOR_AXIS":"6925.344","REV_AT_EPOCH":"10104","TIME_SYSTEM":"UTC","RA_OF_ASC_NODE":"126.0202","CENTER_NAME":"EARTH","MEAN_MOTION":"15.06401461","ARG_OF_PERICENTER":"103.0197","CLASSIFICATION_TYPE":"U"},{"RCS_SIZE":"LARGE","OBJECT_NAME":"STARLINK-1264","TLE_LINE1":"1 45382U 20019Y   22010.58929537  .00002052  00000-0  15660-3 0  9997","BSTAR":"0.00015660000000","OBJECT_TYPE":"PAYLOAD","REF_FRAME":"TEME","FILE":"3269035","MEAN_MOTION_DDOT":"0.0000000000000","INCLINATION":"53.0549","MEAN_MOTION_DOT":"0.00002052","PERIAPSIS":"545.777","OBJECT_ID":"2020-019Y","SITE":"AFETR","GP_ID":"193601688","MEAN_ANOMALY":"253.0049","TLE_LINE2":"2 45382  53.0549 126.1360 0002059 107.1165 253.0049 15.06403604100863","PERIOD":"95.592","ELEMENT_SET_NO":"999","APOAPSIS":"548.628","COUNTRY_CODE":"US","LAUNCH_DATE":"2020-03-18","EPOCH":"2022-01-10T14:08:35.119968","TIME_SYSTEM":"UTC","EPHEMERIS_TYPE":"0","ECCENTRICITY":"0.00020590","DECAY_DATE":null,"SEMIMAJOR_AXIS":"6925.338","REV_AT_EPOCH":"10086","MEAN_ELEMENT_THEORY":"SGP4","NORAD_CAT_ID":"45382","ARG_OF_PERICENTER":"107.1165","CENTER_NAME":"EARTH","MEAN_MOTION":"15.06403604","RA_OF_ASC_NODE":"126.1360","CLASSIFICATION_TYPE":"U"},{"TLE_LINE2":"2 45383  53.0555 126.0520 0001646 101.2388 258.8786 15.06400283101043","PERIOD":"95.592","MEAN_ANOMALY":"258.8786","SITE":"AFETR","GP_ID":"193592728","OBJECT_ID":"2020-019Z","PERIAPSIS":"546.073","MEAN_MOTION_DOT":"0.00000194","INCLINATION":"53.0555","MEAN_MOTION_DDOT":"0.0000000000000","FILE":"3268856","REF_FRAME":"TEME","OBJECT_TYPE":"PAYLOAD","TLE_LINE1":"1 45383U 20019Z   22010.60404226  .00000194  00000-0  31929-4 0  9996","BSTAR":"0.00003192900000","OBJECT_NAME":"STARLINK-1266","RCS_SIZE":"LARGE","CLASSIFICATION_TYPE":"U","RA_OF_ASC_NODE":"126.0520","MEAN_MOTION":"15.06400283","CENTER_NAME":"EARTH","ARG_OF_PERICENTER":"101.2388","MEAN_ELEMENT_THEORY":"SGP4","NORAD_CAT_ID":"45383","REV_AT_EPOCH":"10104","DECAY_DATE":null,"SEMIMAJOR_AXIS":"6925.348","ECCENTRICITY":"0.00016460","EPHEMERIS_TYPE":"0","TIME_SYSTEM":"UTC","EPOCH":"2022-01-10T14:29:49.251264","LAUNCH_DATE":"2020-03-18","APOAPSIS":"548.353","COUNTRY_CODE":"US","ELEMENT_SET_NO":"999"}];
